{"type": "FeatureCollection", "features": [ {"type": "Feature", "properties": {"norad_id": 66052, "name": "HRC MONOBLOCK CAMERA", "group": "stations", "lat": 33.01680700456132, "lon": -63.07078875812782, "alt_km": 399.01348809270985, "timestamp": "2025-12-11T10:53:14.641668+00:00", "meta": {"OBJECT_NAME": "HRC MONOBLOCK CAMERA", "OBJECT_ID": "1998-067XR", "EPOCH": "2025-12-11T04:07:53.480064", "MEAN_MOTION": 15.53961179, "ECCENTRICITY": 0.0003533, "INCLINATION": 51.6288, "RA_OF_ASC_NODE": 149.3227, "ARG_OF_PERICENTER": 176.6815, "MEAN_ANOMALY": 183.4199, "EPHEMERIS_TYPE": 0, "CLASSIFICATION_TYPE": "U", "NORAD_CAT_ID": 66052, "ELEMENT_SET_NO": 999, "REV_AT_EPOCH": 859, "BSTAR": 0.0007811, "MEAN_MOTION_DOT": 0.00051254, "MEAN_MOTION_DDOT": 0}, "tle": {"line1": "1 66052U 98067XR  25345.17214676  .00051254  00000+0  78110-3 0  9998", "line2": "2 66052  51.6288 149.3227 0003533 176.6815 183.4199 15.53961179  8591"}}, "geometry": {"type": "Point", "coordinates": [-63.07078875812782, 33.01680700456132]}}, {"type": "Feature", "properties": {"norad_id": 66174, "name": "HTV-X1", "group": "stations", "lat": 36.82940393855188, "lon": -174.75976774095338, "alt_km": 415.53646768841554, "timestamp": "2025-12-11T10:53:14.641679+00:00", "meta": {"OBJECT_NAME": "HTV-X1", "OBJECT_ID": "2025-241A", "EPOCH": "2025-12-10T22:17:24.112320", "MEAN_MOTION": 15.49489378, "ECCENTRICITY": 0.00033509, "INCLINATION": 51.6309, "RA_OF_ASC_NODE": 151.4463, "ARG_OF_PERICENTER": 232.8214, "MEAN_ANOMALY": 127.2469, "EPHEMERIS_TYPE": 0, "CLASSIFICATION_TYPE": "U", "NORAD_CAT_ID": 66174, "ELEMENT_SET_NO": 999, "REV_AT_EPOCH": 51, "BSTAR": 0.00026508679, "MEAN_MOTION_DOT": 0.00014434, "MEAN_MOTION_DDOT": 0}, "tle": {"line1": "1 66174U 25241A   25344.92875130  .00014434  00000+0  26509-3 0  9991", "line2": "2 66174  51.6309 151.4463 0003350 232.8214 127.2469 15.49489378   512"}}, "geometry": {"type": "Point", "coordinates": [-174.75976774095338, 36.82940393855188]}}, {"type": "Feature", "properties": {"norad_id": 66515, "name": "SZ-21 MODULE", "group": "stations", "lat": 3.8678990739656522, "lon": 28.27851056028622, "alt_km": 381.3584252542587, "timestamp": "2025-12-11T10:53:14.641690+00:00", "meta": {"OBJECT_NAME": "SZ-21 MODULE", "OBJECT_ID": "2025-246C", "EPOCH": "2025-12-10T11:51:01.003968", "MEAN_MOTION": 15.62311534, "ECCENTRICITY": 0.00062785, "INCLINATION": 41.4772, "RA_OF_ASC_NODE": 29.7454, "ARG_OF_PERICENTER": 248.1298, "MEAN_ANOMALY": 111.8874, "EPHEMERIS_TYPE": 0, "CLASSIFICATION_TYPE": "U", "NORAD_CAT_ID": 66515, "ELEMENT_SET_NO": 999, "REV_AT_EPOCH": 409, "BSTAR": 0.00039110764, "MEAN_MOTION_DOT": 0.00035412, "MEAN_MOTION_DDOT": 0}, "tle": {"line1": "1 66515U 25246C   25344.49376162  .00035412  00000+0  39111-3 0  9990", "line2": "2 66515  41.4772  29.7454 0006278 248.1298 111.8874 15.62311534  4092"}}, "geometry": {"type": "Point", "coordinates": [28.27851056028622, 3.8678990739656522]}}, {"type": "Feature", "properties": {"norad_id": 66645, "name": "SHENZHOU-22", "group": "stations", "lat": 37.53357310545298, "lon": 144.06095372631071, "alt_km": 384.487582186247, "timestamp": "2025-12-11T10:53:14.641704+00:00", "meta": {"OBJECT_NAME": "SHENZHOU-22", "OBJECT_ID": "2025-272A", "EPOCH": "2025-12-10T20:34:09.975360", "MEAN_MOTION": 15.59054125, "ECCENTRICITY": 0.0008705, "INCLINATION": 41.4684, "RA_OF_ASC_NODE": 28.1364, "ARG_OF_PERICENTER": 14.9689, "MEAN_ANOMALY": 345.1405, "EPHEMERIS_TYPE": 0, "CLASSIFICATION_TYPE": "U", "NORAD_CAT_ID": 66645, "ELEMENT_SET_NO": 999, "REV_AT_EPOCH": 26357, "BSTAR": 0.00042990708, "MEAN_MOTION_DOT": 0.0003436, "MEAN_MOTION_DDOT": 0}, "tle": {"line1": "1 66645U 25272A   25344.85705990  .00034360  00000+0  42991-3 0  9999", "line2": "2 66645  41.4684  28.1364 0008705  14.9689 345.1405 15.59054125263579"}}, "geometry": {"type": "Point", "coordinates": [144.06095372631071, 37.53357310545298]}}, {"type": "Feature", "properties": {"norad_id": 66664, "name": "SOYUZ-MS 28", "group": "stations", "lat": 36.829406098186546, "lon": -174.7597644257204, "alt_km": 415.53714437651433, "timestamp": "2025-12-11T10:53:14.641717+00:00", "meta": {"OBJECT_NAME": "SOYUZ-MS 28", "OBJECT_ID": "2025-275A", "EPOCH": "2025-12-10T22:17:24.112320", "MEAN_MOTION": 15.49489378, "ECCENTRICITY": 0.0003351, "INCLINATION": 51.6309, "RA_OF_ASC_NODE": 151.4463, "ARG_OF_PERICENTER": 232.8214, "MEAN_ANOMALY": 127.2469, "EPHEMERIS_TYPE": 0, "CLASSIFICATION_TYPE": "U", "NORAD_CAT_ID": 66664, "ELEMENT_SET_NO": 999, "REV_AT_EPOCH": 216, "BSTAR": 0.00026509, "MEAN_MOTION_DOT": 0.00014434, "MEAN_MOTION_DDOT": 0}, "tle": {"line1": "1 66664U 25275A   25344.92875130  .00014434  00000+0  26509-3 0  9992", "line2": "2 66664  51.6309 151.4463 0003351 232.8214 127.2469 15.49489378  2160"}}, "geometry": {"type": "Point", "coordinates": [-174.7597644257204, 36.829406098186546]}}, {"type": "Feature", "properties": {"norad_id": 66906, "name": "1998-067XS", "group": "stations", "lat": 49.14976772506595, "lon": -144.81909322858198, "alt_km": 409.93917396009147, "timestamp": "2025-12-11T10:53:14.641727+00:00", "meta": {"OBJECT_NAME": "1998-067XS", "OBJECT_ID": "1998-067XS", "EPOCH": "2025-12-11T04:22:42.252672", "MEAN_MOTION": 15.50439588, "ECCENTRICITY": 0.0003747, "INCLINATION": 51.6302, "RA_OF_ASC_NODE": 150.1407, "ARG_OF_PERICENTER": 195.2111, "MEAN_ANOMALY": 164.8766, "EPHEMERIS_TYPE": 0, "CLASSIFICATION_TYPE": "U", "NORAD_CAT_ID": 66906, "ELEMENT_SET_NO": 999, "REV_AT_EPOCH": 137, "BSTAR": 0.00067409, "MEAN_MOTION_DOT": 0.00038814, "MEAN_MOTION_DDOT": 0}, "tle": {"line1": "1 66906U 98067XS  25345.18243348  .00038814  00000+0  67409-3 0  9991", "line2": "2 66906  51.6302 150.1407 0003747 195.2111 164.8766 15.50439588  1372"}}, "geometry": {"type": "Point", "coordinates": [-144.81909322858198, 49.14976772506595]}}, {"type": "Feature", "properties": {"norad_id": 66907, "name": "1998-067XT", "group": "stations", "lat": 51.44641276158694, "lon": -127.4425960869381, "alt_km": 408.32594086512745, "timestamp": "2025-12-11T10:53:14.641739+00:00", "meta": {"OBJECT_NAME": "1998-067XT", "OBJECT_ID": "1998-067XT", "EPOCH": "2025-12-09T12:07:37.114752", "MEAN_MOTION": 15.50864429, "ECCENTRICITY": 0.00048036, "INCLINATION": 51.6307, "RA_OF_ASC_NODE": 158.4423, "ARG_OF_PERICENTER": 208.5081, "MEAN_ANOMALY": 151.5646, "EPHEMERIS_TYPE": 0, "CLASSIFICATION_TYPE": "U", "NORAD_CAT_ID": 66907, "ELEMENT_SET_NO": 999, "REV_AT_EPOCH": 111, "BSTAR": 0.0012921241, "MEAN_MOTION_DOT": 0.00076342, "MEAN_MOTION_DDOT": 0}, "tle": {"line1": "1 66907U 98067XT  25343.50529068  .00076342  00000+0  12921-2 0  9998", "line2": "2 66907  51.6307 158.4423 0004803 208.5081 151.5646 15.50864429  1113"}}, "geometry": {"type": "Point", "coordinates": [-127.4425960869381, 51.44641276158694]}}, {"type": "Feature", "properties": {"norad_id": 66908, "name": "1998-067XU", "group": "stations", "lat": 51.55432270653333, "lon": -124.86534138477634, "alt_km": 408.010383434882, "timestamp": "2025-12-11T10:53:14.641752+00:00", "meta": {"OBJECT_NAME": "1998-067XU", "OBJECT_ID": "1998-067XU", "EPOCH": "2025-12-10T15:57:23.331168", "MEAN_MOTION": 15.51115637, "ECCENTRICITY": 0.00048129, "INCLINATION": 51.6304, "RA_OF_ASC_NODE": 152.6848, "ARG_OF_PERICENTER": 213.5482, "MEAN_ANOMALY": 146.5203, "EPHEMERIS_TYPE": 0, "CLASSIFICATION_TYPE": "U", "NORAD_CAT_ID": 66908, "ELEMENT_SET_NO": 999, "REV_AT_EPOCH": 129, "BSTAR": 0.0014713865, "MEAN_MOTION_DOT": 0.00087912, "MEAN_MOTION_DDOT": 0}, "tle": {"line1": "1 66908U 98067XU  25344.66485337  .00087912  00000+0  14714-2 0  9994", "line2": "2 66908  51.6304 152.6848 0004812 213.5482 146.5203 15.51115637  1292"}}, "geometry": {"type": "Point", "coordinates": [-124.86534138477634, 51.55432270653333]}}, {"type": "Feature", "properties": {"norad_id": 66909, "name": "SILVERSAT", "group": "stations", "lat": 51.60577624444986, "lon": -122.3154261208797, "alt_km": 407.67879705818086, "timestamp": "2025-12-11T10:53:14.641765+00:00", "meta": {"OBJECT_NAME": "SILVERSAT", "OBJECT_ID": "1998-067XV", "EPOCH": "2025-12-10T17:29:49.371360", "MEAN_MOTION": 15.51224506, "ECCENTRICITY": 0.00046681, "INCLINATION": 51.6307, "RA_OF_ASC_NODE": 152.3636, "ARG_OF_PERICENTER": 216.2554, "MEAN_ANOMALY": 143.8119, "EPHEMERIS_TYPE": 0, "CLASSIFICATION_TYPE": "U", "NORAD_CAT_ID": 66909, "ELEMENT_SET_NO": 999, "REV_AT_EPOCH": 130, "BSTAR": 0.0015305983, "MEAN_MOTION_DOT": 0.00091869, "MEAN_MOTION_DDOT": 0}, "tle": {"line1": "1 66909U 98067XV  25344.72904365  .00091869  00000+0  15306-2 0  9993", "line2": "2 66909  51.6307 152.3636 0004668 216.2554 143.8119 15.51224506  1301"}}, "geometry": {"type": "Point", "coordinates": [-122.3154261208797, 51.60577624444986]}}, {"type": "Feature", "properties": {"norad_id": 66910, "name": "1998-067XW", "group": "stations", "lat": 51.068598016519296, "lon": -110.01091148674757, "alt_km": 406.1803722087343, "timestamp": "2025-12-11T10:53:14.641779+00:00", "meta": {"OBJECT_NAME": "1998-067XW", "OBJECT_ID": "1998-067XW", "EPOCH": "2025-12-10T11:16:54.563808", "MEAN_MOTION": 15.51350337, "ECCENTRICITY": 0.00055419, "INCLINATION": 51.6299, "RA_OF_ASC_NODE": 153.6351, "ARG_OF_PERICENTER": 197.1967, "MEAN_ANOMALY": 162.8836, "EPHEMERIS_TYPE": 0, "CLASSIFICATION_TYPE": "U", "NORAD_CAT_ID": 66910, "ELEMENT_SET_NO": 999, "REV_AT_EPOCH": 126, "BSTAR": 0.0013818348, "MEAN_MOTION_DOT": 0.00083191, "MEAN_MOTION_DDOT": 0}, "tle": {"line1": "1 66910U 98067XW  25344.47007597  .00083191  00000+0  13818-2 0  9993", "line2": "2 66910  51.6299 153.6351 0005541 197.1967 162.8836 15.51350337  1261"}}, "geometry": {"type": "Point", "coordinates": [-110.01091148674757, 51.068598016519296]}}]}